{"fetched_at":"2026-07-19T07:04:49.137Z","source":"https://celestrak.org/NORAD/elements/gp.php?GROUP=oneweb&FORMAT=JSON","constellation":"oneweb","records":[{"OBJECT_NAME":"ONEWEB-0132","OBJECT_ID":"2020-100W","EPOCH":"2026-07-18T20:29:20.804928","CLASSIFICATION_TYPE":"U","MEAN_MOTION":13.12441831,"ECCENTRICITY":0.0001914,"INCLINATION":87.8967,"RA_OF_ASC_NODE":344.375,"ARG_OF_PERICENTER":98.3466,"MEAN_ANOMALY":261.788,"EPHEMERIS_TYPE":0,"NORAD_CAT_ID":47278,"ELEMENT_SET_NO":999,"REV_AT_EPOCH":26873,"BSTAR":0.0011979,"MEAN_MOTION_DOT":0.00000444,"MEAN_MOTION_DDOT":0},{"OBJECT_NAME":"ONEWEB-0133","OBJECT_ID":"2020-100X","EPOCH":"2026-07-18T19:03:44.493408","CLASSIFICATION_TYPE":"U","MEAN_MOTION":13.12442648,"ECCENTRICITY":0.0001871,"INCLINATION":87.8978,"RA_OF_ASC_NODE":344.3663,"ARG_OF_PERICENTER":105.3949,"MEAN_ANOMALY":254.7386,"EPHEMERIS_TYPE":0,"NORAD_CAT_ID":47279,"ELEMENT_SET_NO":999,"REV_AT_EPOCH":26888,"BSTAR":-0.000011594,"MEAN_MOTION_DOT":9e-8,"MEAN_MOTION_DDOT":0},{"OBJECT_NAME":"ONEWEB-0134","OBJECT_ID":"2020-100Y","EPOCH":"2026-07-18T20:09:49.704768","CLASSIFICATION_TYPE":"U","MEAN_MOTION":13.12443367,"ECCENTRICITY":0.000208,"INCLINATION":87.8979,"RA_OF_ASC_NODE":344.3546,"ARG_OF_PERICENTER":101.7875,"MEAN_ANOMALY":258.3487,"EPHEMERIS_TYPE":0,"NORAD_CAT_ID":47280,"ELEMENT_SET_NO":999,"REV_AT_EPOCH":26886,"BSTAR":0.00052723,"MEAN_MOTION_DOT":0.00000202,"MEAN_MOTION_DDOT":0},{"OBJECT_NAME":"ONEWEB-0135","OBJECT_ID":"2020-100Z","EPOCH":"2026-07-18T19:28:20.271072","CLASSIFICATION_TYPE":"U","MEAN_MOTION":13.12442579,"ECCENTRICITY":0.0002029,"INCLINATION":87.8966,"RA_OF_ASC_NODE":344.3788,"ARG_OF_PERICENTER":104.7629,"MEAN_ANOMALY":255.3724,"EPHEMERIS_TYPE":0,"NORAD_CAT_ID":47281,"ELEMENT_SET_NO":999,"REV_AT_EPOCH":26888,"BSTAR":-0.0012738,"MEAN_MOTION_DOT":-0.00000445,"MEAN_MOTION_DDOT":0},{"OBJECT_NAME":"ONEWEB-0136","OBJECT_ID":"2020-100AA","EPOCH":"2026-07-18T19:55:10.939008","CLASSIFICATION_TYPE":"U","MEAN_MOTION":13.12443603,"ECCENTRICITY":0.0002129,"INCLINATION":87.8972,"RA_OF_ASC_NODE":344.3592,"ARG_OF_PERICENTER":102.3318,"MEAN_ANOMALY":257.8049,"EPHEMERIS_TYPE":0,"NORAD_CAT_ID":47282,"ELEMENT_SET_NO":999,"REV_AT_EPOCH":26881,"BSTAR":-0.00061249,"MEAN_MOTION_DOT":-0.00000208,"MEAN_MOTION_DDOT":0},{"OBJECT_NAME":"ONEWEB-0137","OBJECT_ID":"2020-100AB","EPOCH":"2026-07-18T18:54:11.509344","CLASSIFICATION_TYPE":"U","MEAN_MOTION":13.12442508,"ECCENTRICITY":0.0001819,"INCLINATION":87.898,"RA_OF_ASC_NODE":344.3789,"ARG_OF_PERICENTER":92.3707,"MEAN_ANOMALY":267.763,"EPHEMERIS_TYPE":0,"NORAD_CAT_ID":47283,"ELEMENT_SET_NO":999,"REV_AT_EPOCH":26871,"BSTAR":0.00084503,"MEAN_MOTION_DOT":0.00000317,"MEAN_MOTION_DDOT":0},{"OBJECT_NAME":"ONEWEB-0138","OBJECT_ID":"2020-100AC","EPOCH":"2026-07-18T20:12:16.246080","CLASSIFICATION_TYPE":"U","MEAN_MOTION":13.12443411,"ECCENTRICITY":0.0002091,"INCLINATION":87.8975,"RA_OF_ASC_NODE":344.3728,"ARG_OF_PERICENTER":99.2592,"MEAN_ANOMALY":260.8773,"EPHEMERIS_TYPE":0,"NORAD_CAT_ID":47284,"ELEMENT_SET_NO":999,"REV_AT_EPOCH":26880,"BSTAR":0.00069429,"MEAN_MOTION_DOT":0.00000262,"MEAN_MOTION_DDOT":0},{"OBJECT_NAME":"ONEWEB-0139","OBJECT_ID":"2020-100AD","EPOCH":"2026-07-18T19:21:14.230944","CLASSIFICATION_TYPE":"U","MEAN_MOTION":13.12441501,"ECCENTRICITY":0.0001931,"INCLINATION":87.8976,"RA_OF_ASC_NODE":344.3656,"ARG_OF_PERICENTER":97.2711,"MEAN_ANOMALY":262.8638,"EPHEMERIS_TYPE":0,"NORAD_CAT_ID":47285,"ELEMENT_SET_NO":999,"REV_AT_EPOCH":26887,"BSTAR":-0.00093062,"MEAN_MOTION_DOT":-0.00000322,"MEAN_MOTION_DDOT":0},{"OBJECT_NAME":"ONEWEB-0140","OBJECT_ID":"2020-100AE","EPOCH":"2026-07-18T07:16:28.637472","CLASSIFICATION_TYPE":"U","MEAN_MOTION":13.12443867,"ECCENTRICITY":0.00017911,"INCLINATION":87.8976,"RA_OF_ASC_NODE":344.4572,"ARG_OF_PERICENTER":102.0469,"MEAN_ANOMALY":258.0861,"EPHEMERIS_TYPE":0,"NORAD_CAT_ID":47286,"ELEMENT_SET_NO":999,"REV_AT_EPOCH":26877,"BSTAR":0.00068723063,"MEAN_MOTION_DOT":0.0000026,"MEAN_MOTION_DDOT":0},{"OBJECT_NAME":"ONEWEB-0141","OBJECT_ID":"2020-100AF","EPOCH":"2026-07-18T19:20:48.812064","CLASSIFICATION_TYPE":"U","MEAN_MOTION":13.12444696,"ECCENTRICITY":0.0001644,"INCLINATION":87.8984,"RA_OF_ASC_NODE":344.3654,"ARG_OF_PERICENTER":95.0572,"MEAN_ANOMALY":265.0745,"EPHEMERIS_TYPE":0,"NORAD_CAT_ID":47287,"ELEMENT_SET_NO":999,"REV_AT_EPOCH":26882,"BSTAR":-0.001175,"MEAN_MOTION_DOT":-0.0000041,"MEAN_MOTION_DDOT":0},{"OBJECT_NAME":"ONEWEB-0142","OBJECT_ID":"2020-100AG","EPOCH":"2026-07-18T19:04:08.859072","CLASSIFICATION_TYPE":"U","MEAN_MOTION":13.12442966,"ECCENTRICITY":0.000215,"INCLINATION":87.8969,"RA_OF_ASC_NODE":344.3841,"ARG_OF_PERICENTER":88.1729,"MEAN_ANOMALY":271.9645,"EPHEMERIS_TYPE":0,"NORAD_CAT_ID":47288,"ELEMENT_SET_NO":999,"REV_AT_EPOCH":26881,"BSTAR":-0.000051423,"MEAN_MOTION_DOT":-6e-8,"MEAN_MOTION_DDOT":0},{"OBJECT_NAME":"ONEWEB-0143","OBJECT_ID":"2020-100AH","EPOCH":"2026-07-18T19:18:34.962912","CLASSIFICATION_TYPE":"U","MEAN_MOTION":13.1244268,"ECCENTRICITY":0.0001827,"INCLINATION":87.8968,"RA_OF_ASC_NODE":344.3818,"ARG_OF_PERICENTER":95.4466,"MEAN_ANOMALY":264.6871,"EPHEMERIS_TYPE":0,"NORAD_CAT_ID":47289,"ELEMENT_SET_NO":999,"REV_AT_EPOCH":26879,"BSTAR":-0.00085141,"MEAN_MOTION_DOT":-0.00000294,"MEAN_MOTION_DDOT":0},{"OBJECT_NAME":"ONEWEB-0144","OBJECT_ID":"2020-100AJ","EPOCH":"2026-07-18T20:26:54.731904","CLASSIFICATION_TYPE":"U","MEAN_MOTION":13.12442355,"ECCENTRICITY":0.0002253,"INCLINATION":87.8979,"RA_OF_ASC_NODE":344.3484,"ARG_OF_PERICENTER":96.8606,"MEAN_ANOMALY":263.2779,"EPHEMERIS_TYPE":0,"NORAD_CAT_ID":47290,"ELEMENT_SET_NO":999,"REV_AT_EPOCH":26872,"BSTAR":0.0010121,"MEAN_MOTION_DOT":0.00000377,"MEAN_MOTION_DDOT":0},{"OBJECT_NAME":"ONEWEB-0145","OBJECT_ID":"2020-100AK","EPOCH":"2026-07-18T19:45:25.272288","CLASSIFICATION_TYPE":"U","MEAN_MOTION":13.12443529,"ECCENTRICITY":0.0001935,"INCLINATION":87.8966,"RA_OF_ASC_NODE":344.3786,"ARG_OF_PERICENTER":96.503,"MEAN_ANOMALY":263.6319,"EPHEMERIS_TYPE":0,"NORAD_CAT_ID":47291,"ELEMENT_SET_NO":999,"REV_AT_EPOCH":26891,"BSTAR":-0.0010213,"MEAN_MOTION_DOT":-0.00000355,"MEAN_MOTION_DDOT":0},{"OBJECT_NAME":"ONEWEB-0146","OBJECT_ID":"2020-100AL","EPOCH":"2026-07-18T19:40:32.525760","CLASSIFICATION_TYPE":"U","MEAN_MOTION":13.12443404,"ECCENTRICITY":0.000156,"INCLINATION":87.8977,"RA_OF_ASC_NODE":344.373,"ARG_OF_PERICENTER":103.5451,"MEAN_ANOMALY":256.5851,"EPHEMERIS_TYPE":0,"NORAD_CAT_ID":47292,"ELEMENT_SET_NO":999,"REV_AT_EPOCH":26882,"BSTAR":-0.0011085,"MEAN_MOTION_DOT":-0.00000386,"MEAN_MOTION_DDOT":0},{"OBJECT_NAME":"ONEWEB-0147","OBJECT_ID":"2020-100AM","EPOCH":"2026-07-18T20:41:32.402112","CLASSIFICATION_TYPE":"U","MEAN_MOTION":13.1244266,"ECCENTRICITY":0.0001931,"INCLINATION":87.8977,"RA_OF_ASC_NODE":344.3469,"ARG_OF_PERICENTER":101.4625,"MEAN_ANOMALY":258.672,"EPHEMERIS_TYPE":0,"NORAD_CAT_ID":47293,"ELEMENT_SET_NO":999,"REV_AT_EPOCH":26872,"BSTAR":0.00098837,"MEAN_MOTION_DOT":0.00000368,"MEAN_MOTION_DDOT":0},{"OBJECT_NAME":"ONEWEB-0115","OBJECT_ID":"2021-025A","EPOCH":"2026-07-18T18:56:47.738688","CLASSIFICATION_TYPE":"U","MEAN_MOTION":13.13460854,"ECCENTRICITY":0.0001852,"INCLINATION":87.8982,"RA_OF_ASC_NODE":313.9357,"ARG_OF_PERICENTER":102.718,"MEAN_ANOMALY":257.4156,"EPHEMERIS_TYPE":0,"NORAD_CAT_ID":48042,"ELEMENT_SET_NO":999,"REV_AT_EPOCH":25774,"BSTAR":0.000014785,"MEAN_MOTION_DOT":1.8e-7,"MEAN_MOTION_DDOT":0},{"OBJECT_NAME":"ONEWEB-0152","OBJECT_ID":"2021-025B","EPOCH":"2026-07-18T19:16:14.543040","CLASSIFICATION_TYPE":"U","MEAN_MOTION":13.13473258,"ECCENTRICITY":0.0001866,"INCLINATION":87.8991,"RA_OF_ASC_NODE":313.9314,"ARG_OF_PERICENTER":102.7828,"MEAN_ANOMALY":257.3509,"EPHEMERIS_TYPE":0,"NORAD_CAT_ID":48043,"ELEMENT_SET_NO":999,"REV_AT_EPOCH":25770,"BSTAR":-0.00087329,"MEAN_MOTION_DOT":-0.00000306,"MEAN_MOTION_DDOT":0},{"OBJECT_NAME":"ONEWEB-0153","OBJECT_ID":"2021-025C","EPOCH":"2026-07-18T18:44:34.308096","CLASSIFICATION_TYPE":"U","MEAN_MOTION":13.13469256,"ECCENTRICITY":0.0001996,"INCLINATION":87.898,"RA_OF_ASC_NODE":313.9362,"ARG_OF_PERICENTER":98.2346,"MEAN_ANOMALY":261.9009,"EPHEMERIS_TYPE":0,"NORAD_CAT_ID":48044,"ELEMENT_SET_NO":999,"REV_AT_EPOCH":25769,"BSTAR":0.00045179,"MEAN_MOTION_DOT":0.00000178,"MEAN_MOTION_DDOT":0},{"OBJECT_NAME":"ONEWEB-0154","OBJECT_ID":"2021-025D","EPOCH":"2026-07-18T18:39:41.874336","CLASSIFICATION_TYPE":"U","MEAN_MOTION":13.13469893,"ECCENTRICITY":0.0001995,"INCLINATION":87.8988,"RA_OF_ASC_NODE":313.9364,"ARG_OF_PERICENTER":105.5287,"MEAN_ANOMALY":254.6063,"EPHEMERIS_TYPE":0,"NORAD_CAT_ID":48045,"ELEMENT_SET_NO":999,"REV_AT_EPOCH":25765,"BSTAR":0.00063843,"MEAN_MOTION_DOT":0.00000246,"MEAN_MOTION_DDOT":0},{"OBJECT_NAME":"ONEWEB-0116","OBJECT_ID":"2021-025E","EPOCH":"2026-07-18T19:35:45.398688","CLASSIFICATION_TYPE":"U","MEAN_MOTION":13.13470734,"ECCENTRICITY":0.0001843,"INCLINATION":87.8986,"RA_OF_ASC_NODE":313.9258,"ARG_OF_PERICENTER":103.1096,"MEAN_ANOMALY":257.0239,"EPHEMERIS_TYPE":0,"NORAD_CAT_ID":48046,"ELEMENT_SET_NO":999,"REV_AT_EPOCH":25780,"BSTAR":-0.00050889,"MEAN_MOTION_DOT":-0.00000173,"MEAN_MOTION_DDOT":0},{"OBJECT_NAME":"ONEWEB-0150","OBJECT_ID":"2021-025F","EPOCH":"2026-07-18T19:01:38.302752","CLASSIFICATION_TYPE":"U","MEAN_MOTION":13.13469908,"ECCENTRICITY":0.0001843,"INCLINATION":87.8992,"RA_OF_ASC_NODE":313.9277,"ARG_OF_PERICENTER":94.9302,"MEAN_ANOMALY":265.2038,"EPHEMERIS_TYPE":0,"NORAD_CAT_ID":48047,"ELEMENT_SET_NO":999,"REV_AT_EPOCH":25769,"BSTAR":-0.00038493,"MEAN_MOTION_DOT":-0.00000128,"MEAN_MOTION_DDOT":0},{"OBJECT_NAME":"ONEWEB-0107","OBJECT_ID":"2021-025G","EPOCH":"2026-07-18T19:04:03.991296","CLASSIFICATION_TYPE":"U","MEAN_MOTION":13.13471909,"ECCENTRICITY":0.000211,"INCLINATION":87.8994,"RA_OF_ASC_NODE":313.9231,"ARG_OF_PERICENTER":99.2052,"MEAN_ANOMALY":260.9316,"EPHEMERIS_TYPE":0,"NORAD_CAT_ID":48048,"ELEMENT_SET_NO":999,"REV_AT_EPOCH":25767,"BSTAR":-0.00053204,"MEAN_MOTION_DOT":-0.00000182,"MEAN_MOTION_DDOT":0}]}
